start=new Date('2021-09-11T00:00:00.000Z').valueOf();
sats=[{"EPHEMERIS_TYPE":"0","OBJECT_TYPE":"PAYLOAD","GP_ID":"184472519","CLASSIFICATION_TYPE":"U","ELEMENT_SET_NO":"999","COUNTRY_CODE":"US","OBJECT_NAME":"STARLINK-1423","DECAY_DATE":null,"RA_OF_ASC_NODE":"202.5324","MEAN_MOTION_DDOT":"0.0000000000000","MEAN_MOTION_DOT":"0.00000823","SEMIMAJOR_AXIS":"6925.324","MEAN_MOTION":"15.06407958","FILE":"3112758","PERIOD":"95.592","SITE":"AFETR","CENTER_NAME":"EARTH","NORAD_CAT_ID":"45710","TLE_LINE2":"2 45710  53.0548 202.5324 0001419  63.9040 296.2095 15.06407958 71847","PERIAPSIS":"546.206","MEAN_ANOMALY":"296.2095","TIME_SYSTEM":"UTC","REF_FRAME":"TEME","EPOCH":"2021-09-10T20:59:58.190784","REV_AT_EPOCH":"7184","APOAPSIS":"548.172","MEAN_ELEMENT_THEORY":"SGP4","BSTAR":"0.00007415300000","ECCENTRICITY":"0.00014190","INCLINATION":"53.0548","ARG_OF_PERICENTER":"63.9040","RCS_SIZE":"LARGE","OBJECT_ID":"2020-035BF","LAUNCH_DATE":"2020-06-04","TLE_LINE1":"1 45710U 20035BF  21253.87497906  .00000823  00000-0  74153-4 0  9997"},{"REV_AT_EPOCH":"7176","APOAPSIS":"548.467","MEAN_ELEMENT_THEORY":"SGP4","MEAN_ANOMALY":"299.6162","CENTER_NAME":"EARTH","PERIAPSIS":"545.981","TLE_LINE2":"2 45711  53.0553 204.6989 0001795  60.5006 299.6162 15.06396518 71768","NORAD_CAT_ID":"45711","EPOCH":"2021-09-10T09:24:39.401280","TIME_SYSTEM":"UTC","REF_FRAME":"TEME","OBJECT_ID":"2020-035BG","LAUNCH_DATE":"2020-06-04","TLE_LINE1":"1 45711U 20035BG  21253.39212270  .00002701  00000-0  20018-3 0  9991","ECCENTRICITY":"0.00017950","INCLINATION":"53.0553","ARG_OF_PERICENTER":"60.5006","BSTAR":"0.00020018000000","RCS_SIZE":"LARGE","RA_OF_ASC_NODE":"204.6989","DECAY_DATE":null,"MEAN_MOTION_DOT":"0.00002701","MEAN_MOTION_DDOT":"0.0000000000000","OBJECT_TYPE":"PAYLOAD","EPHEMERIS_TYPE":"0","COUNTRY_CODE":"US","OBJECT_NAME":"STARLINK-1433","GP_ID":"184440858","CLASSIFICATION_TYPE":"U","ELEMENT_SET_NO":"999","PERIOD":"95.592","SITE":"AFETR","FILE":"3112362","MEAN_MOTION":"15.06396518","SEMIMAJOR_AXIS":"6925.359"},{"MEAN_MOTION":"15.06401975","FILE":"3112758","SITE":"AFETR","PERIOD":"95.592","SEMIMAJOR_AXIS":"6925.343","DECAY_DATE":null,"RA_OF_ASC_NODE":"202.6291","MEAN_MOTION_DDOT":"0.0000000000000","MEAN_MOTION_DOT":"-0.00000444","EPHEMERIS_TYPE":"0","OBJECT_TYPE":"PAYLOAD","ELEMENT_SET_NO":"999","CLASSIFICATION_TYPE":"U","GP_ID":"184473022","OBJECT_NAME":"STARLINK-1434","COUNTRY_CODE":"US","OBJECT_ID":"2020-035BH","LAUNCH_DATE":"2020-06-04","TLE_LINE1":"1 45712U 20035BH  21253.85286015 -.00000444  00000-0 -10891-4 0  9994","BSTAR":"-0.00001089100000","ARG_OF_PERICENTER":"54.3019","INCLINATION":"53.0539","ECCENTRICITY":"0.00016590","RCS_SIZE":"LARGE","REV_AT_EPOCH":"7184","APOAPSIS":"548.356","MEAN_ELEMENT_THEORY":"SGP4","TLE_LINE2":"2 45712  53.0539 202.6291 0001659  54.3019 305.8124 15.06401975 71842","PERIAPSIS":"546.059","NORAD_CAT_ID":"45712","CENTER_NAME":"EARTH","MEAN_ANOMALY":"305.8124","REF_FRAME":"TEME","TIME_SYSTEM":"UTC","EPOCH":"2021-09-10T20:28:07.116960"},{"RCS_SIZE":"LARGE","BSTAR":"0.00002406400000","INCLINATION":"53.0549","ARG_OF_PERICENTER":"58.3716","ECCENTRICITY":"0.00016830","TLE_LINE1":"1 45713U 20035BJ  21253.93948548  .00000077  00000-0  24064-4 0  9997","OBJECT_ID":"2020-035BJ","LAUNCH_DATE":"2020-06-04","REF_FRAME":"TEME","TIME_SYSTEM":"UTC","EPOCH":"2021-09-10T22:32:51.545472","NORAD_CAT_ID":"45713","TLE_LINE2":"2 45713  53.0549 222.2433 0001683  58.3716 301.7437 15.06400779 71567","PERIAPSIS":"546.046","CENTER_NAME":"EARTH","MEAN_ANOMALY":"301.7437","APOAPSIS":"548.377","MEAN_ELEMENT_THEORY":"SGP4","REV_AT_EPOCH":"7156","SEMIMAJOR_AXIS":"6925.346","MEAN_MOTION":"15.06400779","FILE":"3112758","SITE":"AFETR","PERIOD":"95.592","ELEMENT_SET_NO":"999","CLASSIFICATION_TYPE":"U","GP_ID":"184471770","OBJECT_NAME":"STARLINK-1436","COUNTRY_CODE":"US","EPHEMERIS_TYPE":"0","OBJECT_TYPE":"PAYLOAD","MEAN_MOTION_DDOT":"0.0000000000000","MEAN_MOTION_DOT":"0.00000077","DECAY_DATE":null,"RA_OF_ASC_NODE":"222.2433"},{"SITE":"AFETR","PERIOD":"95.592","FILE":"3112362","MEAN_MOTION":"15.06403612","SEMIMAJOR_AXIS":"6925.337","MEAN_MOTION_DOT":"0.00001501","MEAN_MOTION_DDOT":"0.0000000000000","RA_OF_ASC_NODE":"205.2620","DECAY_DATE":null,"OBJECT_NAME":"STARLINK-1437","COUNTRY_CODE":"US","ELEMENT_SET_NO":"999","GP_ID":"184439606","CLASSIFICATION_TYPE":"U","OBJECT_TYPE":"PAYLOAD","EPHEMERIS_TYPE":"0","TLE_LINE1":"1 45714U 20035BK  21253.26679262  .00001501  00000-0  11964-3 0  9995","LAUNCH_DATE":"2020-06-04","OBJECT_ID":"2020-035BK","RCS_SIZE":"LARGE","ARG_OF_PERICENTER":"58.2801","INCLINATION":"53.0555","ECCENTRICITY":"0.00014880","BSTAR":"0.00011964000000","MEAN_ELEMENT_THEORY":"SGP4","APOAPSIS":"548.233","REV_AT_EPOCH":"7175","EPOCH":"2021-09-10T06:24:10.882368","REF_FRAME":"TEME","TIME_SYSTEM":"UTC","MEAN_ANOMALY":"301.8333","TLE_LINE2":"2 45714  53.0555 205.2620 0001488  58.2801 301.8333 15.06403612 71757","PERIAPSIS":"546.172","NORAD_CAT_ID":"45714","CENTER_NAME":"EARTH"},{"COUNTRY_CODE":"US","OBJECT_NAME":"STARLINK-1439","CLASSIFICATION_TYPE":"U","GP_ID":"184472772","ELEMENT_SET_NO":"999","EPHEMERIS_TYPE":"0","OBJECT_TYPE":"PAYLOAD","MEAN_MOTION_DOT":"0.00046592","MEAN_MOTION_DDOT":"0.0000000000000","RA_OF_ASC_NODE":"76.3235","DECAY_DATE":null,"SEMIMAJOR_AXIS":"6779.504","PERIOD":"92.588","SITE":"AFETR","FILE":"3112758","MEAN_MOTION":"15.55270400","EPOCH":"2021-09-10T21:22:16.938912","TIME_SYSTEM":"UTC","REF_FRAME":"TEME","MEAN_ANOMALY":"149.8100","CENTER_NAME":"EARTH","PERIAPSIS":"397.320","TLE_LINE2":"2 45716  52.9970  76.3235 0005972 210.2565 149.8100 15.55270400 73605","NORAD_CAT_ID":"45716","MEAN_ELEMENT_THEORY":"SGP4","APOAPSIS":"405.417","REV_AT_EPOCH":"7360","RCS_SIZE":"LARGE","ECCENTRICITY":"0.00059720","ARG_OF_PERICENTER":"210.2565","INCLINATION":"52.9970","BSTAR":"0.00067847000000","TLE_LINE1":"1 45716U 20035BM  21253.89047383  .00046592  00000-0  67847-3 0  9999","OBJECT_ID":"2020-035BM","LAUNCH_DATE":"2020-06-04"},{"SEMIMAJOR_AXIS":"6925.368","PERIOD":"95.593","SITE":"AFETR","MEAN_MOTION":"15.06393751","FILE":"3112758","COUNTRY_CODE":"US","OBJECT_NAME":"STARLINK-1461","GP_ID":"184473023","CLASSIFICATION_TYPE":"U","ELEMENT_SET_NO":"999","EPHEMERIS_TYPE":"0","OBJECT_TYPE":"PAYLOAD","MEAN_MOTION_DOT":"-0.00000461","MEAN_MOTION_DDOT":"0.0000000000000","RA_OF_ASC_NODE":"42.5217","DECAY_DATE":null,"RCS_SIZE":"LARGE","ECCENTRICITY":"0.00015640","ARG_OF_PERICENTER":"108.8648","INCLINATION":"53.0545","BSTAR":"-0.00001202500000","TLE_LINE1":"1 45730U 20038A   21253.87497914 -.00000461  00000-0 -12025-4 0  9991","LAUNCH_DATE":"2020-06-13","OBJECT_ID":"2020-038A","EPOCH":"2021-09-10T20:59:58.197696","TIME_SYSTEM":"UTC","REF_FRAME":"TEME","MEAN_ANOMALY":"251.2511","CENTER_NAME":"EARTH","TLE_LINE2":"2 45730  53.0545  42.5217 0001564 108.8648 251.2511 15.06393751 68893","NORAD_CAT_ID":"45730","PERIAPSIS":"546.150","MEAN_ELEMENT_THEORY":"SGP4","APOAPSIS":"548.316","REV_AT_EPOCH":"6889"},{"MEAN_MOTION_DOT":"-0.00007449","MEAN_MOTION_DDOT":"0.0000000000000","RA_OF_ASC_NODE":"42.7672","DECAY_DATE":null,"COUNTRY_CODE":"US","OBJECT_NAME":"STARLINK-1465","CLASSIFICATION_TYPE":"U","GP_ID":"184471771","ELEMENT_SET_NO":"999","OBJECT_TYPE":"PAYLOAD","EPHEMERIS_TYPE":"0","PERIOD":"95.590","SITE":"AFETR","FILE":"3112758","MEAN_MOTION":"15.06441050","SEMIMAJOR_AXIS":"6925.223","MEAN_ELEMENT_THEORY":"SGP4","APOAPSIS":"547.889","REV_AT_EPOCH":"6887","EPOCH":"2021-09-10T19:45:37.846944","TIME_SYSTEM":"UTC","REF_FRAME":"TEME","MEAN_ANOMALY":"241.6418","CENTER_NAME":"EARTH","NORAD_CAT_ID":"45731","TLE_LINE2":"2 45731  53.0567  42.7672 0001157 118.4688 241.6418 15.06441050 68877","PERIAPSIS":"546.287","TLE_LINE1":"1 45731U 20038B   21253.82335471 -.00007449  00000-0 -48120-3 0  9993","LAUNCH_DATE":"2020-06-13","OBJECT_ID":"2020-038B","RCS_SIZE":"LARGE","ECCENTRICITY":"0.00011570","ARG_OF_PERICENTER":"118.4688","INCLINATION":"53.0567","BSTAR":"-0.00048120000000"},{"OBJECT_ID":"2020-038C","LAUNCH_DATE":"2020-06-13","TLE_LINE1":"1 45732U 20038C   21253.87867371  .00000765  00000-0  70264-4 0  9995","INCLINATION":"53.0546","ARG_OF_PERICENTER":"99.5650","ECCENTRICITY":"0.00017750","BSTAR":"0.00007026400000","RCS_SIZE":"LARGE","REV_AT_EPOCH":"6888","MEAN_ELEMENT_THEORY":"SGP4","APOAPSIS":"548.463","MEAN_ANOMALY":"260.5540","NORAD_CAT_ID":"45732","TLE_LINE2":"2 45732  53.0546  42.5064 0001775  99.5650 260.5540 15.06393530 68888","PERIAPSIS":"546.004","CENTER_NAME":"EARTH","EPOCH":"2021-09-10T21:05:17.408544","REF_FRAME":"TEME","TIME_SYSTEM":"UTC","SITE":"AFETR","PERIOD":"95.593","MEAN_MOTION":"15.06393530","FILE":"3112758","SEMIMAJOR_AXIS":"6925.368","RA_OF_ASC_NODE":"42.5064","DECAY_DATE":null,"MEAN_MOTION_DOT":"0.00000765","MEAN_MOTION_DDOT":"0.0000000000000","OBJECT_TYPE":"PAYLOAD","EPHEMERIS_TYPE":"0","OBJECT_NAME":"STARLINK-1466","COUNTRY_CODE":"US","ELEMENT_SET_NO":"999","CLASSIFICATION_TYPE":"U","GP_ID":"184472021"},{"SEMIMAJOR_AXIS":"6925.358","MEAN_MOTION":"15.06396865","FILE":"3112758","SITE":"AFETR","PERIOD":"95.592","ELEMENT_SET_NO":"999","CLASSIFICATION_TYPE":"U","GP_ID":"184472773","OBJECT_NAME":"STARLINK-1467","COUNTRY_CODE":"US","EPHEMERIS_TYPE":"0","OBJECT_TYPE":"PAYLOAD","MEAN_MOTION_DDOT":"0.0000000000000","MEAN_MOTION_DOT":"-0.00000210","DECAY_DATE":null,"RA_OF_ASC_NODE":"42.4786","RCS_SIZE":"LARGE","BSTAR":"0.00000478420000","ARG_OF_PERICENTER":"107.1885","INCLINATION":"53.0552","ECCENTRICITY":"0.00015450","TLE_LINE1":"1 45733U 20038D   21253.88603549 -.00000210  00000-0  47842-5 0  9995","OBJECT_ID":"2020-038D","LAUNCH_DATE":"2020-06-13","REF_FRAME":"TEME","TIME_SYSTEM":"UTC","EPOCH":"2021-09-10T21:15:53.466336","TLE_LINE2":"2 45733  53.0552  42.4786 0001545 107.1885 252.9273 15.06396865 68889","NORAD_CAT_ID":"45733","PERIAPSIS":"546.153","CENTER_NAME":"EARTH","MEAN_ANOMALY":"252.9273","MEAN_ELEMENT_THEORY":"SGP4","APOAPSIS":"548.293","REV_AT_EPOCH":"6888"}];
